#dP2023  1 16  0  0  0.00000000      96 __u+U ITR00 EXT  IAC
## 2245  86400.00000000   900.00000000 59960 0.0000000000000
+  119   C06C07C08C09C10C11C12C13C14C16C19C20C21C22C23C24C25
+        C26C27C28C29C30C32C33C34C35C36C37C38C39C40C41C42C43
+        C44C45C46E01E02E03E04E05E07E08E09E10E11E12E13E14E15
+        E18E19E21E24E25E26E27E30E31E33E34E36G01G02G03G04G05
+        G06G07G08G09G10G11G12G13G14G15G16G17G18G19G20G21G22
+        G23G24G25G26G27G29G30G31G32J02J03J04R01R02R03R04R05
+        R07R08R09R11R12R13R14R15R16R17R18R19R20R21R22R24R25
++        10 11 11  8 10 10  8 11 12 10 10  9 10  8  9  8  9
++         9  7  8  8  7  9  9  7  8  8  7 11 10 10 10  9  6
++         9  7  7  8  8  8  6  6  8  7  6  6  7  8  8  8  7
++         6  8  8  6  7  8  7  7  6  7  7  6  6  6  6  6  7
++         7  7  6  6  6  6  6  7  6  7  7  8  7  7  7  7  7
++         7  7  6  6  7  7  7  6  6  8 10  9  6  7  8  8  7
++         9  9  7  7  9  8  5  7  7  6  8  9  9  6  9  7  7
%c M  cc GPS ccc cccc cccc cccc cccc ccccc ccccc ccccc ccccc
%c cc cc ccc ccc cccc cccc cccc cccc ccccc ccccc ccccc ccccc
%f  0.0000000  0.000000000  0.00000000000  0.000000000000000
%f  0.0000000  0.000000000  0.00000000000  0.000000000000000
%i    0    0    0    0      0      0      0      0         0
%i    0    0    0    0      0      0      0      0         0
/* IAC                                ULTRA-RAPID PREDICTION
/* S/V CLOCKS ARE ALIGNED TO GNSS TIME                      
/* G:C1WC2W R:C1PC2P E:C1XC5X C:C2IC6I J:C1CC2S             
/* PCV:IGS20_2239 OL/AL:FES2004  NONE     YN ORB:CoN CLK:CoN
*  2023 01 16 15 45  0.00000000
PC06 -11979.462718  23379.886094 -33019.580114   -185.712342
PC07 -13203.134396  39542.970545   5712.884504      7.155751
PC08   2673.147916  33578.522081  25499.222431    527.723853
PC09  -3037.129559  24159.429634 -34044.373077    286.557156
PC10  -8037.016014  39682.565285  11095.601414     31.048948
PC11 -17632.983205 -10693.787837 -18718.192158   -174.527752
PC12   2137.802197 -15547.371040 -23031.403257    400.769623
PC13   6119.827926  35818.889900  21781.703622    184.779644
PC14  -9192.889280 -15732.728669  21167.567421    374.832306
PC16 -14057.682657  22414.764588 -32718.731032     80.643540
PC19  14594.332693   5822.122408 -23036.999334   -896.822646
PC20   3510.687405  21803.488552 -17033.530719    764.748601
PC21  10586.098031 -25828.588749    270.744616   -916.468396
PC22  17833.082080 -14284.826373 -16034.667526   -682.596828
PC23 -17512.271861   2653.233490 -21566.880210   -871.774848
PC24 -11538.796107 -24230.060467   7570.727468   -533.376508
PC25 -21401.293173 -14102.984506 -11021.777143     56.466366
PC26   2575.627701 -19528.571506  19734.877328    -65.178073
PC27 -11790.555086  15390.355208  20060.725988     82.475195
PC28 -25709.386481   8071.729052   7263.406519     59.591377
PC29  25215.717086   3998.723803  11257.784282     68.244235
PC30   8950.793821  14282.478061  22232.369266      1.274186
PC32 -10455.897407  25870.266590   -144.300172   -648.536901
PC33 -14613.439893  -5885.643816  23038.233532   -880.347328
PC34 -10333.430521 -13903.940945 -21890.833616     84.998630
PC35  25965.730894  -8224.109457  -5983.459932    485.029479
PC36  20987.448609  15158.144973  10448.000937   -690.583132
PC37  -4213.967774  18621.923711 -20357.112041   -846.080494
PC38  -5023.935079  29365.567192  29931.563443     52.351077
PC39 -20395.410540  21662.003526 -29928.283923     -1.443610
PC40 -20352.385094  36618.090730   3479.925160    -12.691369
PC41 -17890.972559  13721.874701  16496.378064   -500.761080
PC42  -2673.714209 -22607.307984  16194.502073   -892.256538
PC43 -24832.049218  -4644.157753 -11889.200409      2.379577
PC44  11357.595276 -15912.609935 -19909.144460    179.162488
PC45  17231.199496  -2938.473446  21750.960359    -48.307903
PC46  12884.991898  24058.546738  -5945.596824    -26.848254
PE01  12273.484233  22771.355556  14397.536825   -595.394587
PE02 -12456.108116 -22453.223251 -14710.881395     15.064218
PE03 -13813.240586 -10689.183546  23890.915624   -640.526105
PE04  25165.275452  -5939.794237 -14401.590656    -37.490419
PE05   5935.148631 -21420.835513  19544.226258   -104.605203
PE07 -21973.938293  19464.609989  -3786.482121    -15.630706
PE08 -25074.669095   5977.051813  14542.014633    -20.445354
PE09  22057.270678 -19413.269182   3609.289283   -802.203732
PE10  23790.222036  -2017.606738 -17498.815073   -505.514663
PE11  15552.389740  -9668.021298 -23254.361870    485.708319
PE12  27513.261920   5239.276158  -9545.899258   -386.409859
PE13 -16358.533769   9030.377380  22968.660578    429.886371
PE14 -23367.540286   -228.095106 -13888.480977    115.116635
PE15 -27586.516653  -5443.394693   9271.497069    693.753088
PE18  27073.114915 -13788.832553    786.182739   -502.293867
PE19  11291.178195  12628.094682 -24270.742555  -3472.079470
PE21   1589.651276  29476.182070  -2288.572377   -506.607670
PE24  11460.773767 -19116.066366  19445.230109  -1061.335402
PE25  -1376.802708 -29446.589547   2593.442766   -597.310680
PE26   5145.417871  18377.586278  22636.629806  -1849.654698
PE27 -10902.425763  19963.765728 -18953.490777   -489.156829
PE30 -16938.637971  -2063.905204 -24198.022430  -1165.183681
PE31  16859.991153   1237.307275  24301.179189   -513.480993
PE33  22436.067738  16616.424727   9829.212546   -454.105975
PE34 -22584.053760 -16511.391851  -9659.603571    -25.146342
PE36  -4337.413697 -18051.793292 -23047.436254   -491.325588
PG01 -22093.607822 -14701.399449  -3673.374340    223.693907
PG02  23860.008668  11334.782875   1672.730942   -626.941314
PG03 -12296.028009 -16015.538672  17193.144663   -371.808260
PG04 -17280.911433  -5529.198353  19439.217861    -47.498197
PG05   5881.724689  25331.347037  -5249.111387   -112.219466
PG06 -10889.894859  10544.050994  21889.216466    559.386157
PG07 -24378.033534  -5191.367239  -9417.255245    257.786800
PG08  -7000.056556 -13605.656357 -21740.784136   -103.869302
PG09 -23048.167949   5042.303378  12167.696499   -235.410553
PG10  11481.792411 -15400.210030 -18030.887099    -20.654929
PG11   2517.472308  17470.316175  19868.267799    -80.183337
PG12  10654.153150  18010.807733  16141.387317   -328.821744
PG13  -1876.961945  16567.762408 -20806.250724    460.375374
PG14 -13439.294058  12771.106329 -18968.658850    -48.134680
PG15   9157.988060  13238.766752 -21564.774060      5.142421
PG16   -675.748935 -26185.429487  -2700.281332   -523.658926
PG17 -22996.674989  13383.885846    857.106717    693.745787
PG18  23143.133795   2607.520369 -12898.172306   -101.506122
PG19 -17400.161431  16674.787924  10625.687151    264.916296
PG20    139.238508  25699.009867   7172.198429    456.682591
PG21 -18521.340478 -15903.956045 -10783.300200    153.482281
PG22  13758.154069 -18182.747640  13903.350735    407.165309
PG23  14721.648934  -3203.559421 -21863.725481      2.665791
PG24  20688.273808  15124.041756  -8107.569365    -32.595497
PG25  14793.568358   8224.895397  20226.323731    411.828351
PG26   5287.342994 -23571.445311  10534.119986    240.381660
PG27   4874.389762 -18321.701578 -18653.173124    125.579948
PG29  22344.369041  -1016.866227  14336.265183   -580.747119
PG30 -18322.298755   5595.228792 -18407.467149   -533.104863
PG31   9858.030511 -11929.761735  21449.940521   -206.498085
PG32  20867.760914 -16011.447241   2948.624046   -365.962260
PJ02 -21198.568079  27715.879184 -19047.847193     -0.590999
PJ03 -28459.162136  24571.021658  24098.650297     -0.064583
PJ04 -29509.647704  29033.492857  13992.855513    119.028194
PR01 -12385.702506   -255.385817  22297.416239     21.355139
PR02 -16733.815281  16099.438700  10679.775839    -23.321066
PR03 -10745.400967  22179.636719  -6657.601135     70.951900
PR04    794.120037  15708.575314 -20059.834213    172.490295
PR05  12016.639766    830.253223 -22470.121221    106.279833
PR07  10212.114335 -22097.126426   7569.215966     48.116125
PR08  -1164.886960 -15602.883583  20191.110075    -69.054565
PR09   9673.102750  -5923.997578  22861.094445     98.885372
PR11 -11410.536009 -22796.598639   1056.764571      5.773318
PR12 -15147.041534 -12195.925568 -16476.589357     24.355568
PR13 -10394.190532   3953.176780 -22977.008209    -31.024995
PR14   1509.113110  19769.689492 -16036.376991     24.227521
PR15  11663.160861  22687.057715     91.276598     91.666181
PR16  15191.037595  12403.118284  16298.006729     10.048208
PR17  -6742.441527   9862.518034  22545.985992    596.326237
PR18  11350.052934  10035.670468  20524.996629     62.085494
PR19  23004.911284   6290.920655   9054.532029   -218.450702
PR20  22578.823863  -2860.570584 -11459.487770    -85.981308
PR21   5042.350665 -10007.384096 -22911.060935   -365.903994
PR22 -11845.152399 -10677.894398 -19883.126242     66.873300
PR24 -22157.312470   4107.053338  11964.110836    139.992136
PR25   7681.801380  -9729.168241 -22287.035017     51.774582
EOF
